ONEWEB-0365             
1 49291U 21090N   26188.27816025  .00000058  00000+0  11344-3 0  9991
2 49291  87.9192 300.9664 0002000 102.9963 257.1393 13.19725866229071
ONEWEB-0366             
1 49292U 21090P   26188.22651471 -.00000156  00000+0 -45648-3 0  9994
2 49292  87.8973 285.7138 0002019  99.6919 260.4439 13.14501977230190
ONEWEB-0367             
1 49293U 21090Q   26188.16295697  .00000077  00000+0  15721-3 0  9991
2 49293  87.9193 270.4606 0002156 103.5270 256.6104 13.20773130232461
ONEWEB-0368             
1 49294U 21090R   26188.21262335  .00000027  00000+0  33402-4 0  9993
2 49294  87.9181 270.4587 0001393 110.4464 249.6819 13.20771187233625
ONEWEB-0369             
1 49295U 21090S   26188.27342276  .00000054  00000+0  10168-3 0  9996
2 49295  87.9185 300.9731 0001916 102.6649 257.4698 13.19726077229060
ONEWEB-0370             
1 49296U 21090T   26187.71767715  .00000078  00000+0  16057-3 0  9993
2 49296  87.9193 270.5486 0002469  96.2337 263.9078 13.20771600232449
ONEWEB-0371             
1 49297U 21090U   26188.28131164 -.00000017  00000+0 -74102-4 0  9991
2 49297  87.9193 300.9653 0002054 102.8136 257.3227 13.19724656229104
ONEWEB-0372             
1 49298U 21090V   26188.23771749  .00000091  00000+0  19205-3 0  9998
2 49298  87.9191 270.4466 0002068 100.9375 259.1991 13.20773991232486
ONEWEB-0373             
1 49299U 21090W   26187.65706408  .00000042  00000+0  70901-4 0  9991
2 49299  87.9190 270.5625 0002105  97.2985 262.8388 13.20772409233598
ONEWEB-0374             
1 49300U 21090X   26188.21382047 -.00000103  00000+0 -31149-3 0  9996
2 49300  87.8977 285.7076 0001703  84.3700 275.7624 13.14502491230190
ONEWEB-0375             
1 49301U 21090Y   26188.17557958  .00000110  00000+0  23885-3 0  9991
2 49301  87.9192 270.4512 0001852  83.6328 276.5016 13.20772761233160
ONEWEB-0376             
1 49302U 21090Z   26188.27973226  .00000041  00000+0  70803-4 0  9999
2 49302  87.9191 300.9655 0001972 106.5462 253.5888 13.19726235229108
ONEWEB-0377             
1 49303U 21090AA  26188.16225305  .00000032  00000+0  47058-4 0  9992
2 49303  87.9192 270.4558 0002009  92.7571 267.3792 13.20773579233154
ONEWEB-0378             
1 49304U 21090AB  26187.65216218  .00000092  00000+0  19523-3 0  9990
2 49304  87.9189 270.5616 0001914  96.8414 263.2938 13.20771843232352
ONEWEB-0379             
1 49305U 21090AC  26187.67624131 -.00000142  00000+0 -41773-3 0  9990
2 49305  87.8975 285.8250 0001905  98.0929 262.0417 13.14501567230122
ONEWEB-0380             
1 49306U 21090AD  26188.27658367  .00000078  00000+0  16322-3 0  9994
2 49306  87.9184 300.9705 0002028  94.8969 265.2395 13.19726135229072
ONEWEB-0381             
1 49307U 21090AE  26187.70419376  .00000059  00000+0  11253-3 0  9994
2 49307  87.9193 270.5516 0001905  91.8857 268.2495 13.20773197232408
ONEWEB-0382             
1 49308U 21090AF  26188.22103827  .00000045  00000+0  78151-4 0  9990
2 49308  87.9192 270.4426 0001804  93.8539 266.2800 13.20771467232466
ONEWEB-0383             
1 49309U 21090AG  26187.66990179 -.00000003  00000+0 -41722-4 0  9992
2 49309  87.8978 285.8183 0001830  99.3146 260.8191 13.14502572230151
ONEWEB-0384             
1 49310U 21090AH  26188.20904545  .00000052  00000+0  95540-4 0  9996
2 49310  87.9194 270.4888 0001640  94.7565 265.3756 13.20813781232477
ONEWEB-0385             
1 49311U 21090AJ  26187.68398188 -.00000023  00000+0 -88275-4 0  9995
2 49311  87.9193 270.5552 0001901  95.2267 264.9083 13.20773795232378
ONEWEB-0386             
1 49312U 21090AK  26187.70083222  .00000003  00000+0 -23359-4 0  9998
2 49312  87.9197 270.5433 0001812  95.6167 264.5173 13.20773021232395
ONEWEB-0387             
1 49313U 21090AL  26187.68566869  .00000003  00000+0 -24459-4 0  9991
2 49313  87.9183 270.5661 0002131  89.0584 271.0793 13.20773890232394
ONEWEB-0388             
1 49314U 21090AM  26188.27184327  .00000091  00000+0  19618-3 0  9999
2 49314  87.9187 300.9695 0001835  97.4483 262.6858 13.19726008229060
ONEWEB-0389             
1 50469U 21132A   26188.47367030  .00000066  00000+0  13589-3 0  9998
2 50469  87.9139   1.8316 0001863  81.5049 278.6294 13.17650228220756
ONEWEB-0390             
1 50470U 21132B   26187.94380492  .00000081  00000+0  17492-3 0  9992
2 50470  87.9138   1.9381 0002085  91.5460 268.5910 13.17650617220682
ONEWEB-0391             
1 50471U 21132C   26187.94549337  .00000013  00000+0  11362-5 0  9995
2 50471  87.9139   1.9474 0002333  72.7199 287.4188 13.17649811220684
ONEWEB-0392             
1 50472U 21132D   26188.43148945  .00000013  00000+0  22995-6 0  9996
2 50472  87.9147   1.8207 0001935  79.5074 280.6276 13.17649993220786
ONEWEB-0393             
1 50473U 21132E   26188.40701192  .00000060  00000+0  12215-3 0  9996
2 50473  87.9139   1.8411 0001883  86.3330 273.8017 13.17647584220778
ONEWEB-0394             
1 50474U 21132F   26188.35712569  .00000090  00000+0  19628-3 0  9999
2 50474  87.9191 331.4303 0001734  94.6645 265.4685 13.18683995224257
