OBJECT_NAME,OBJECT_ID,EPOCH,MEAN_MOTION,ECCENTRICITY,INCLINATION,RA_OF_ASC_NODE,ARG_OF_PERICENTER,MEAN_ANOMALY,EPHEMERIS_TYPE,CLASSIFICATION_TYPE,NORAD_CAT_ID,ELEMENT_SET_NO,REV_AT_EPOCH,BSTAR,MEAN_MOTION_DOT,MEAN_MOTION_DDOT
ONEWEB-0365,2021-090N,2026-07-07T06:40:33.045600,13.19725866,.00020009,87.9192,300.9664,102.9963,257.1393,0,U,49291,999,22907,.11344458E-3,.58E-6,0
ONEWEB-0366,2021-090P,2026-07-07T05:26:10.870944,13.14501977,.00020199,87.8973,285.7138,99.6919,260.4439,0,U,49292,999,23019,-.456478E-3,-.156E-5,0
ONEWEB-0367,2021-090Q,2026-07-07T03:54:39.482208,13.20773130,.00021569,87.9193,270.4606,103.5270,256.6104,0,U,49293,999,23246,.15721246E-3,.77E-6,0
ONEWEB-0368,2021-090R,2026-07-07T05:06:10.657440,13.20771187,.00013939,87.9181,270.4587,110.4464,249.6819,0,U,49294,999,23362,.33401878E-4,.27E-6,0
ONEWEB-0369,2021-090S,2026-07-07T06:33:43.726464,13.19726077,.00019163,87.9185,300.9731,102.6649,257.4698,0,U,49295,999,22906,.10168072E-3,.54E-6,0
ONEWEB-0370,2021-090T,2026-07-06T17:13:27.305760,13.20771600,.00024694,87.9193,270.5486,96.2337,263.9078,0,U,49296,999,23244,.16057095E-3,.78E-6,0
ONEWEB-0371,2021-090U,2026-07-07T06:45:05.325696,13.19724656,.00020542,87.9193,300.9653,102.8136,257.3227,0,U,49297,999,22910,-.74101528E-4,-.17E-6,0
ONEWEB-0372,2021-090V,2026-07-07T05:42:18.791136,13.20773991,.0002068,87.9191,270.4466,100.9375,259.1991,0,U,49298,999,23248,.19204555E-3,.91E-6,0
ONEWEB-0373,2021-090W,2026-07-06T15:46:10.336512,13.20772409,.00021054,87.9190,270.5625,97.2985,262.8388,0,U,49299,999,23359,.7090148E-4,.42E-6,0
ONEWEB-0374,2021-090X,2026-07-07T05:07:54.088608,13.14502491,.00017034,87.8977,285.7076,84.3700,275.7624,0,U,49300,999,23019,-.31148857E-3,-.103E-5,0
ONEWEB-0375,2021-090Y,2026-07-07T04:12:50.075712,13.20772761,.00018528,87.9192,270.4512,83.6328,276.5016,0,U,49301,999,23316,.23885312E-3,.11E-5,0
ONEWEB-0376,2021-090Z,2026-07-07T06:42:48.867264,13.19726235,.00019726,87.9191,300.9655,106.5462,253.5888,0,U,49302,999,22910,.70803154E-4,.41E-6,0
ONEWEB-0377,2021-090AA,2026-07-07T03:53:38.663520,13.20773579,.00020093,87.9192,270.4558,92.7571,267.3792,0,U,49303,999,23315,.47058131E-4,.32E-6,0
ONEWEB-0378,2021-090AB,2026-07-06T15:39:06.812352,13.20771843,.00019149,87.9189,270.5616,96.8414,263.2938,0,U,49304,999,23235,.19523091E-3,.92E-6,0
ONEWEB-0379,2021-090AC,2026-07-06T16:13:47.249184,13.14501567,.00019059,87.8975,285.8250,98.0929,262.0417,0,U,49305,999,23012,-.41773349E-3,-.142E-5,0
ONEWEB-0380,2021-090AD,2026-07-07T06:38:16.829088,13.19726135,.00020289,87.9184,300.9705,94.8969,265.2395,0,U,49306,999,22907,.16321536E-3,.78E-6,0
ONEWEB-0381,2021-090AE,2026-07-06T16:54:02.340864,13.20773197,.00019058,87.9193,270.5516,91.8857,268.2495,0,U,49307,999,23240,.11253123E-3,.59E-6,0
ONEWEB-0382,2021-090AF,2026-07-07T05:18:17.706528,13.20771467,.00018041,87.9192,270.4426,93.8539,266.2800,0,U,49308,999,23246,.78151241E-4,.45E-6,0
ONEWEB-0383,2021-090AG,2026-07-06T16:04:39.514656,13.14502572,.00018301,87.8978,285.8183,99.3146,260.8191,0,U,49309,999,23015,-.41722182E-4,-.3E-7,0
ONEWEB-0384,2021-090AH,2026-07-07T05:01:01.526880,13.20813781,.00016402,87.9194,270.4888,94.7565,265.3756,0,U,49310,999,23247,.95540308E-4,.52E-6,0
ONEWEB-0385,2021-090AJ,2026-07-06T16:24:56.034432,13.20773795,.00019013,87.9193,270.5552,95.2267,264.9083,0,U,49311,999,23237,-.88274581E-4,-.23E-6,0
ONEWEB-0386,2021-090AK,2026-07-06T16:49:11.903808,13.20773021,.00018126,87.9197,270.5433,95.6167,264.5173,0,U,49312,999,23239,-.23359468E-4,.3E-7,0
ONEWEB-0387,2021-090AL,2026-07-06T16:27:21.774816,13.20773890,.0002131,87.9183,270.5661,89.0584,271.0793,0,U,49313,999,23239,-.24458902E-4,.3E-7,0
ONEWEB-0388,2021-090AM,2026-07-07T06:31:27.258528,13.19726008,.00018352,87.9187,300.9695,97.4483,262.6858,0,U,49314,999,22906,.19618289E-3,.91E-6,0
ONEWEB-0389,2021-132A,2026-07-07T11:22:05.113920,13.17650228,.0001863,87.9139,1.8316,81.5049,278.6294,0,U,50469,999,22075,.13588816E-3,.66E-6,0
ONEWEB-0390,2021-132B,2026-07-06T22:39:04.745088,13.17650617,.0002085,87.9138,1.9381,91.5460,268.5910,0,U,50470,999,22068,.17492305E-3,.81E-6,0
ONEWEB-0391,2021-132C,2026-07-06T22:41:30.627168,13.17649811,.00023331,87.9139,1.9474,72.7199,287.4188,0,U,50471,999,22068,.1136165E-5,.13E-6,0
ONEWEB-0392,2021-132D,2026-07-07T10:21:20.688480,13.17649993,.00019355,87.9147,1.8207,79.5074,280.6276,0,U,50472,999,22078,.229954E-6,.13E-6,0
ONEWEB-0393,2021-132E,2026-07-07T09:46:05.829888,13.17647584,.00018837,87.9139,1.8411,86.3330,273.8017,0,U,50473,999,22077,.12214753E-3,.6E-6,0
ONEWEB-0394,2021-132F,2026-07-07T08:34:15.659616,13.18683995,.0001734,87.9191,331.4303,94.6645,265.4685,0,U,50474,999,22425,.19627585E-3,.9E-6,0
